STARLINK-36821          
1 67880U 26035B   26073.91668981 -.01811023  00000+0 -12891-1 0  9990
2 67880  97.2855   6.5579 0001322  80.3134 345.2999 15.76797486  4595
STARLINK-36808          
1 67881U 26035C   26073.91668981  .00159194  00000+0  82130-3 0  9997
2 67881  97.2867   6.5570 0001163  80.0250 348.1835 15.80694650  4594
STARLINK-36817          
1 67882U 26035D   26073.91668981  .00192722  00000+0  99030-3 0  9999
2 67882  97.2869   6.5607 0000777 130.5795 310.4409 15.80694014  4596
STARLINK-36856          
1 67883U 26035E   26073.91668981  .00208341  00000+0  10692-2 0  9991
2 67883  97.2870   6.5594 0000790 131.0326 305.7167 15.80680059  4597
STARLINK-36842          
1 67884U 26035F   26073.91668981 -.01917190  00000+0 -13337-1 0  9992
2 67884  97.2857   6.5622 0001344  88.7110 351.7827 15.77499569  4594
STARLINK-36826          
1 67885U 26035G   26073.91668981  .00186882  00000+0  96097-3 0  9992
2 67885  97.2870   6.5647 0001164  44.2039  45.3732 15.80693821  4596
STARLINK-36390          
1 67886U 26035H   26073.91668981 -.01980999  00000+0 -13390-1 0  9990
2 67886  97.2861   6.5649 0001431  76.2283  14.6262 15.78250744  4645
STARLINK-36368          
1 67887U 26035J   26073.91668981 -.00038908  00000+0 -20366-3 0  9997
2 67887  97.2866   6.5656 0001459 118.1101 340.0160 15.80775451  4591
STARLINK-36801          
1 67888U 26035K   26073.91668981  .00092334  00000+0  47970-3 0  9999
2 67888  97.2873   6.5688 0001209 117.9102 344.4845 15.80724600  4594
STARLINK-36372          
1 67889U 26035L   26073.91668981  .00169825  00000+0  87502-3 0  9995
2 67889  97.2876   6.5705 0001341  66.2846  44.6556 15.80694719  4591
STARLINK-36363          
1 67890U 26035M   26073.91668981 -.01963889  00000+0 -12396-1 0  9999
2 67890  97.2866   6.5698 0001838  87.5634  18.5187 15.79720234  4595
STARLINK-36816          
1 67891U 26035N   26073.91668981  .00101800  00000+0  52818-3 0  9999
2 67891  97.2879   6.5909 0002068  68.8265  97.6720 15.80725057  4493
